H1 CPF  1  DGF 2022 10 16 10  7891 larets     NONE      
H2   304206 5557    27944 2022 10 16 00 00 00 2022 10 23 00 00 00    30 1 1  0 0 0
H5  0.0650
H9
10 0 59872  82800.000000  0      -4663698.278      -4642685.411      -2558709.605
10 0 59872  82830.000000  0      -4638464.809      -4548684.920      -2765011.046
10 0 59872  82860.000000  0      -4608103.804      -4450190.691      -2968486.237
10 0 59872  82890.000000  0      -4572627.345      -4347325.712      -3168927.629
10 0 59872  82920.000000  0      -4532053.277      -4240217.347      -3366130.859
10 0 59872  82950.000000  0      -4486405.204      -4128997.169      -3559894.955
10 0 59872  82980.000000  0      -4435712.478      -4013800.803      -3750022.546
10 0 59872  83010.000000  0      -4380010.180      -3894767.753      -3936320.064
10 0 59872  83040.000000  0      -4319339.095      -3772041.228      -4118597.939
10 0 59872  83070.000000  0      -4253745.680      -3645767.967      -4296670.792
10 0 59872  83100.000000  0      -4183282.028      -3516098.059      -4470357.625
10 0 59872  83130.000000  0      -4108005.817      -3383184.759      -4639481.998
10 0 59872  83160.000000  0      -4027980.265      -3247184.304      -4803872.209
10 0 59872  83190.000000  0      -3943274.067      -3108255.724      -4963361.462
10 0 59872  83220.000000  0      -3853961.334      -2966560.653      -5117788.033
10 0 59872  83250.000000  0      -3760121.521      -2822263.137      -5266995.427
10 0 59872  83280.000000  0      -3661839.352      -2675529.441      -5410832.535
10 0 59872  83310.000000  0      -3559204.738      -2526527.856      -5549153.775
10 0 59872  83340.000000  0      -3452312.693      -2375428.503      -5681819.240
10 0 59872  83370.000000  0      -3341263.238      -2222403.135      -5808694.829
10 0 59872  83400.000000  0      -3226161.305      -2067624.939      -5929652.380
10 0 59872  83430.000000  0      -3107116.630      -1911268.340      -6044569.790
10 0 59872  83460.000000  0      -2984243.646      -1753508.799      -6153331.133
10 0 59872  83490.000000  0      -2857661.366      -1594522.618      -6255826.768
10 0 59872  83520.000000  0      -2727493.264      -1434486.740      -6351953.443
10 0 59872  83550.000000  0      -2593867.150      -1273578.554      -6441614.390
10 0 59872  83580.000000  0      -2456915.037      -1111975.694      -6524719.414
10 0 59872  83610.000000  0      -2316773.014       -949855.847      -6601184.975
10 0 59872  83640.000000  0      -2173581.101       -787396.557      -6670934.264
10 0 59872  83670.000000  0      -2027483.113       -624775.033      -6733897.269
10 0 59872  83700.000000  0      -1878626.510       -462167.955      -6790010.839
10 0 59872  83730.000000  0      -1727162.252       -299751.291      -6839218.736
10 0 59872  83760.000000  0      -1573244.646       -137700.104      -6881471.691
10 0 59872  83790.000000  0      -1417031.191         23811.627      -6916727.445
10 0 59872  83820.000000  0      -1258682.417        184611.197      -6944950.790
10 0 59872  83850.000000  0      -1098361.721        344527.354      -6966113.606
10 0 59872  83880.000000  0       -936235.195        503390.479      -6980194.879
10 0 59872  83910.000000  0       -772471.460        661032.771      -6987180.724
10 0 59872  83940.000000  0       -607241.490        817288.415      -6987064.388
10 0 59872  83970.000000  0       -440718.435        971993.758      -6979846.255
10 0 59872  84000.000000  0       -273077.448       1124987.467      -6965533.846
10 0 59872  84030.000000  0       -104495.504       1276110.701      -6944141.813
10 0 59872  84060.000000  0         64848.783       1425207.268      -6915691.931
10 0 59872  84090.000000  0        234775.347       1572123.792      -6880213.082
10 0 59872  84120.000000  0        405102.865       1716709.869      -6837741.229
10 0 59872  84150.000000  0        575648.950       1858818.223      -6788319.378
10 0 59872  84180.000000  0        746230.347       1998304.854      -6731997.537
10 0 59872  84210.000000  0        916663.127       2135029.180      -6668832.662
10 0 59872  84240.000000  0       1086762.878       2268854.178      -6598888.610
10 0 59872  84270.000000  0       1256344.906       2399646.524      -6522236.075
10 0 59872  84300.000000  0       1425224.429       2527276.726      -6438952.529
10 0 59872  84330.000000  0       1593216.782       2651619.256      -6349122.146
10 0 59872  84360.000000  0       1760137.622       2772552.675      -6252835.718
10 0 59872  84390.000000  0       1925803.122       2889959.749      -6150190.569
10 0 59872  84420.000000  0       2090030.178       3003727.562      -6041290.464
10 0 59872  84450.000000  0       2252636.606       3113747.627      -5926245.508
10 0 59872  84480.000000  0       2413441.346       3219915.991      -5805172.044
10 0 59872  84510.000000  0       2572264.659       3322133.332      -5678192.542
10 0 59872  84540.000000  0       2728928.333       3420305.063      -5545435.486
10 0 59872  84570.000000  0       2883255.881       3514341.417      -5407035.249
10 0 59872  84600.000000  0       3035072.744       3604157.540      -5263131.965
10 0 59872  84630.000000  0       3184206.489       3689673.564      -5113871.391
10 0 59872  84660.000000  0       3330487.011       3770814.685      -4959404.766
10 0 59872  84690.000000  0       3473746.726       3847511.230      -4799888.664
10 0 59872  84720.000000  0       3613820.765       3919698.722      -4635484.840
10 0 59872  84750.000000  0       3750547.171       3987317.934      -4466360.071
10 0 59872  84780.000000  0       3883767.086       4050314.947      -4292685.991
10 0 59872  84810.000000  0       4013324.942       4108641.186      -4114638.924
10 0 59872  84840.000000  0       4139068.648       4162253.469      -3932399.702
10 0 59872  84870.000000  0       4260849.770       4211114.030      -3746153.485
10 0 59872  84900.000000  0       4378523.712       4255190.552      -3556089.576
10 0 59872  84930.000000  0       4491949.888       4294456.185      -3362401.226
10 0 59872  84960.000000  0       4600991.896       4328889.559      -3165285.440
10 0 59872  84990.000000  0       4705517.679       4358474.790      -2964942.776
10 0 59872  85020.000000  0       4805399.690       4383201.480      -2761577.144
10 0 59872  85050.000000  0       4900515.051       4403064.718      -2555395.598
10 0 59872  85080.000000  0       4990745.711       4418065.063      -2346608.127
10 0 59872  85110.000000  0       5075978.595       4428208.530      -2135427.429
10 0 59872  85140.000000  0       5156105.747       4433506.562      -1922068.700
10 0 59872  85170.000000  0       5231024.464       4433975.997      -1706749.401
10 0 59872  85200.000000  0       5300637.431       4429639.034      -1489689.040
10 0 59872  85230.000000  0       5364852.845       4420523.185      -1271108.942
10 0 59872  85260.000000  0       5423584.534       4406661.228      -1051232.021
10 0 59872  85290.000000  0       5476752.071       4388091.149       -830282.545
10 0 59872  85320.000000  0       5524280.881       4364856.082       -608485.905
10 0 59872  85350.000000  0       5566102.343       4337004.240       -386068.380
10 0 59872  85380.000000  0       5602153.880       4304588.838       -163256.903
10 0 59872  85410.000000  0       5632379.053       4267668.020         59721.179
10 0 59872  85440.000000  0       5656727.640       4226304.768        282638.340
10 0 59872  85470.000000  0       5675155.712       4180566.813        505267.117
10 0 59872  85500.000000  0       5687625.692       4130526.531        727380.348
10 0 59872  85530.000000  0       5694106.418       4076260.845        948751.408
10 0 59872  85560.000000  0       5694573.196       4017851.116       1169154.445
10 0 59872  85590.000000  0       5689007.839       3955383.024       1388364.618
10 0 59872  85620.000000  0       5677398.709       3888946.456       1606158.332
10 0 59872  85650.000000  0       5659740.737       3818635.383       1822313.473
10 0 59872  85680.000000  0       5636035.450       3744547.727       2036609.637
10 0 59872  85710.000000  0       5606290.974       3666785.236       2248828.361
10 0 59872  85740.000000  0       5570522.044       3585453.348       2458753.353
10 0 59872  85770.000000  0       5528750.002       3500661.049       2666170.709
10 0 59872  85800.000000  0       5481002.780       3412520.729       2870869.142
10 0 59872  85830.000000  0       5427314.888       3321148.039       3072640.196
10 0 59872  85860.000000  0       5367727.381       3226661.738       3271278.463
10 0 59872  85890.000000  0       5302287.830       3129183.538       3466581.791
10 0 59872  85920.000000  0       5231050.279       3028837.952       3658351.490
10 0 59872  85950.000000  0       5154075.194       2925752.131       3846392.542
10 0 59872  85980.000000  0       5071429.403       2820055.700       4030513.790
10 0 59872  86010.000000  0       4983186.031       2711880.596       4210528.129
10 0 59872  86040.000000  0       4889424.433       2601360.902       4386252.682
10 0 59872  86070.000000  0       4790230.130       2488632.692       4557508.988
10 0 59872  86100.000000  0       4685694.726       2373833.866       4724123.189
10 0 59872  86130.000000  0       4575915.817       2257103.972       4885926.214
10 0 59872  86160.000000  0       4460996.883       2138584.043       5042753.940
10 0 59872  86190.000000  0       4341047.187       2018416.424       5194447.355
10 0 59872  86220.000000  0       4216181.661       1896744.600       5340852.716
10 0 59872  86250.000000  0       4086520.796       1773713.026       5481821.693
10 0 59872  86280.000000  0       3952190.513       1649466.957       5617211.522
10 0 59872  86310.000000  0       3813322.038       1524152.268       5746885.135
10 0 59872  86340.000000  0       3670051.766       1397915.293       5870711.293
10 0 59872  86370.000000  0       3522521.125       1270902.646       5988564.714
99
